[{"OBJECT_NAME":"STARLINK-6082","OBJECT_ID":"2023-046T","EPOCH":"2026-03-09T05:28:29.720064","MEAN_MOTION":15.02535742,"ECCENTRICITY":9.704e-5,"INCLINATION":43.0013,"RA_OF_ASC_NODE":161.3659,"ARG_OF_PERICENTER":289.0965,"MEAN_ANOMALY":70.9773,"EPHEMERIS_TYPE":0,"CLASSIFICATION_TYPE":"U","NORAD_CAT_ID":56110,"ELEMENT_SET_NO":999,"REV_AT_EPOCH":16199,"BSTAR":4.0748386e-5,"MEAN_MOTION_DOT":3.47e-6,"MEAN_MOTION_DDOT":0},{"OBJECT_NAME":"KUIPER-00094","OBJECT_ID":"2025-151Z","EPOCH":"2026-03-09T21:52:26.217120","MEAN_MOTION":15.04318495,"ECCENTRICITY":0.00055168,"INCLINATION":51.8894,"RA_OF_ASC_NODE":261.3496,"ARG_OF_PERICENTER":288.9664,"MEAN_ANOMALY":71.071,"EPHEMERIS_TYPE":0,"CLASSIFICATION_TYPE":"U","NORAD_CAT_ID":64839,"ELEMENT_SET_NO":999,"REV_AT_EPOCH":3587,"BSTAR":0.00056295714,"MEAN_MOTION_DOT":7.667e-5,"MEAN_MOTION_DDOT":0}]
